[{"OBJECT_NAME":"STARLINK-6095","OBJECT_ID":"2023-046J","EPOCH":"2026-03-09T05:46:04.840320","MEAN_MOTION":15.02532627,"ECCENTRICITY":8.256e-5,"INCLINATION":42.9998,"RA_OF_ASC_NODE":161.456,"ARG_OF_PERICENTER":219.4231,"MEAN_ANOMALY":140.6552,"EPHEMERIS_TYPE":0,"CLASSIFICATION_TYPE":"U","NORAD_CAT_ID":56101,"ELEMENT_SET_NO":999,"REV_AT_EPOCH":16199,"BSTAR":7.92342e-7,"MEAN_MOTION_DOT":-1.93e-6,"MEAN_MOTION_DDOT":0},{"OBJECT_NAME":"KUIPER-00203","OBJECT_ID":"2026-030K","EPOCH":"2026-03-09T22:00:01.999584","MEAN_MOTION":15.12119903,"ECCENTRICITY":0.00114753,"INCLINATION":51.8873,"RA_OF_ASC_NODE":219.0557,"ARG_OF_PERICENTER":61.3884,"MEAN_ANOMALY":261.5536,"EPHEMERIS_TYPE":0,"CLASSIFICATION_TYPE":"U","NORAD_CAT_ID":67773,"ELEMENT_SET_NO":999,"REV_AT_EPOCH":368,"BSTAR":-0.068919543,"MEAN_MOTION_DOT":-0.01112832,"MEAN_MOTION_DDOT":0}]
